STARLINK-2139           
1 48554U 21041B   26068.45378287 -.00001085  00000+0 -24509-4 0  9999
2 48554  53.1615 127.7973 0001287  99.9388 260.1758 15.30202762265245
TRANSPORTER-10 OBJECT AD
1 59125U 24043AD  26068.86032889  .00011954  00000+0  36311-3 0  9997
2 59125  97.5470 207.3753 0008984 221.4908 138.5653 15.34189901112026
