[{"OBJECT_NAME":"STARLINK-2139","OBJECT_ID":"2021-041B","EPOCH":"2026-03-09T10:53:26.839968","MEAN_MOTION":15.30202762,"ECCENTRICITY":0.00012873,"INCLINATION":53.1615,"RA_OF_ASC_NODE":127.7973,"ARG_OF_PERICENTER":99.9388,"MEAN_ANOMALY":260.1758,"EPHEMERIS_TYPE":0,"CLASSIFICATION_TYPE":"U","NORAD_CAT_ID":48554,"ELEMENT_SET_NO":999,"REV_AT_EPOCH":26524,"BSTAR":-2.4509264e-5,"MEAN_MOTION_DOT":-1.085e-5,"MEAN_MOTION_DDOT":0},{"OBJECT_NAME":"TRANSPORTER-10 OBJECT AD","OBJECT_ID":"2024-043AD","EPOCH":"2026-03-09T20:38:52.416960","MEAN_MOTION":15.34189901,"ECCENTRICITY":0.00089841,"INCLINATION":97.547,"RA_OF_ASC_NODE":207.3753,"ARG_OF_PERICENTER":221.4908,"MEAN_ANOMALY":138.5653,"EPHEMERIS_TYPE":0,"CLASSIFICATION_TYPE":"U","NORAD_CAT_ID":59125,"ELEMENT_SET_NO":999,"REV_AT_EPOCH":11202,"BSTAR":0.00036310552,"MEAN_MOTION_DOT":0.00011954,"MEAN_MOTION_DDOT":0}]
